<?xml version="1.0" encoding="UTF-8"?>
<kml xmlns="http://www.opengis.net/kml/2.2" xmlns:gx="http://www.google.com/kml/ext/2.2" xmlns:kml="http://www.opengis.net/kml/2.2" xmlns:atom="http://www.w3.org/2005/Atom">
<Document id="document">
	<name>Карта без названия</name>
	<gx:CascadingStyle kml:id="__managed_style_040D1700923F51CDA74B_normal">
		<Style>
			<IconStyle>
				<Icon>
					<href>https://earth.google.com/earth/document/icon?color=1976d2&amp;id=2000&amp;scale=4</href>
				</Icon>
				<hotSpot x="64" y="128" xunits="pixels" yunits="insetPixels"/>
			</IconStyle>
			<LabelStyle>
			</LabelStyle>
			<LineStyle>
				<color>ff2dc0fb</color>
				<width>4</width>
			</LineStyle>
			<PolyStyle>
				<color>40ffffff</color>
			</PolyStyle>
			<BalloonStyle>
				<displayMode>hide</displayMode>
			</BalloonStyle>
		</Style>
	</gx:CascadingStyle>
	<gx:CascadingStyle kml:id="__managed_style_040D1700923F51CDA74B_highlight">
		<Style>
			<IconStyle>
				<scale>1.2</scale>
				<Icon>
					<href>https://earth.google.com/earth/document/icon?color=1976d2&amp;id=2000&amp;scale=4</href>
				</Icon>
				<hotSpot x="64" y="128" xunits="pixels" yunits="insetPixels"/>
			</IconStyle>
			<LabelStyle>
			</LabelStyle>
			<LineStyle>
				<color>ff2dc0fb</color>
				<width>6</width>
			</LineStyle>
			<PolyStyle>
				<color>40ffffff</color>
			</PolyStyle>
			<BalloonStyle>
				<displayMode>hide</displayMode>
			</BalloonStyle>
		</Style>
	</gx:CascadingStyle>
	<StyleMap id="__managed_style_040D1700923F51CDA74B">
		<Pair>
			<key>normal</key>
			<styleUrl>#__managed_style_040D1700923F51CDA74B_normal</styleUrl>
		</Pair>
		<Pair>
			<key>highlight</key>
			<styleUrl>#__managed_style_040D1700923F51CDA74B_highlight</styleUrl>
		</Pair>
	</StyleMap>
	<Placemark id="043D0927033F51CDA696">
		<name>Многоугольник без названия</name>
		<LookAt>
			<longitude>33.63209447126921</longitude>
			<latitude>66.335128033507</latitude>
			<altitude>0.5603364970455593</altitude>
			<heading>0</heading>
			<tilt>0</tilt>
			<gx:fovy>30</gx:fovy>
			<range>3497.259808880627</range>
			<altitudeMode>absolute</altitudeMode>
		</LookAt>
		<styleUrl>#__managed_style_040D1700923F51CDA74B</styleUrl>
		<Polygon>
			<outerBoundaryIs>
				<LinearRing>
					<coordinates>
						33.64636329152822,66.33498088926115,0 33.64480313310047,66.33528338149384,0 33.64292516931103,66.33522688899831,0 33.64094810677611,66.3352648274014,0 33.63882888005554,66.33528383416846,0 33.63614452567122,66.33522721955146,0 33.63383614295936,66.33520832379743,0 33.63058814530545,66.33528390321615,0 33.62790311726302,66.33535953599102,0 33.62682003837537,66.33494364344648,0 33.6271968915935,66.33437657552837,0 33.62955152476988,66.33413089584039,0 33.63346012206744,66.33399859024208,0 33.63670941118507,66.33388511188356,0 33.64137147580101,66.33392270784151,0 33.6445737835739,66.3340169938984,0 33.64650219761609,66.33435721372066,0 33.64636329152822,66.33498088926115,0 
					</coordinates>
				</LinearRing>
			</outerBoundaryIs>
		</Polygon>
	</Placemark>
</Document>
</kml>
