<?xml version="1.0" encoding="UTF-8"?>
<kml xmlns="http://www.opengis.net/kml/2.2" xmlns:gx="http://www.google.com/kml/ext/2.2" xmlns:kml="http://www.opengis.net/kml/2.2" xmlns:atom="http://www.w3.org/2005/Atom">
<Document id="document">
	<name>Карта без названия</name>
	<gx:CascadingStyle kml:id="__managed_style_040D1700923F51CDA74B_normal">
		<Style>
			<IconStyle>
				<Icon>
					<href>https://earth.google.com/earth/document/icon?color=1976d2&amp;id=2000&amp;scale=4</href>
				</Icon>
				<hotSpot x="64" y="128" xunits="pixels" yunits="insetPixels"/>
			</IconStyle>
			<LabelStyle>
			</LabelStyle>
			<LineStyle>
				<color>ff2dc0fb</color>
				<width>4</width>
			</LineStyle>
			<PolyStyle>
				<color>40ffffff</color>
			</PolyStyle>
			<BalloonStyle>
				<displayMode>hide</displayMode>
			</BalloonStyle>
		</Style>
	</gx:CascadingStyle>
	<gx:CascadingStyle kml:id="__managed_style_040D1700923F51CDA74B_highlight">
		<Style>
			<IconStyle>
				<scale>1.2</scale>
				<Icon>
					<href>https://earth.google.com/earth/document/icon?color=1976d2&amp;id=2000&amp;scale=4</href>
				</Icon>
				<hotSpot x="64" y="128" xunits="pixels" yunits="insetPixels"/>
			</IconStyle>
			<LabelStyle>
			</LabelStyle>
			<LineStyle>
				<color>ff2dc0fb</color>
				<width>6</width>
			</LineStyle>
			<PolyStyle>
				<color>40ffffff</color>
			</PolyStyle>
			<BalloonStyle>
				<displayMode>hide</displayMode>
			</BalloonStyle>
		</Style>
	</gx:CascadingStyle>
	<StyleMap id="__managed_style_040D1700923F51CDA74B">
		<Pair>
			<key>normal</key>
			<styleUrl>#__managed_style_040D1700923F51CDA74B_normal</styleUrl>
		</Pair>
		<Pair>
			<key>highlight</key>
			<styleUrl>#__managed_style_040D1700923F51CDA74B_highlight</styleUrl>
		</Pair>
	</StyleMap>
	<Placemark id="06B1B7BE2F3F51E0E9F1">
		<name>Многоугольник без названия</name>
		<LookAt>
			<longitude>33.64762111927796</longitude>
			<latitude>66.33905762809137</latitude>
			<altitude>3.609153773922578</altitude>
			<heading>-1.055837953518282</heading>
			<tilt>1.911136494538859</tilt>
			<gx:fovy>30</gx:fovy>
			<range>573.0293381425146</range>
			<altitudeMode>absolute</altitudeMode>
		</LookAt>
		<styleUrl>#__managed_style_040D1700923F51CDA74B</styleUrl>
		<Polygon>
			<outerBoundaryIs>
				<LinearRing>
					<coordinates>
						33.64981083279808,66.33873285702724,0 33.64905252016715,66.33903496151679,0 33.64903254006803,66.33930547581596,0 33.64899215309891,66.33956686114752,0 33.64877584256602,66.33967532489876,0 33.64857343971982,66.33985984582021,0 33.64842532016206,66.33999536058757,0 33.64806071524552,66.34019041805585,0 33.64750272618183,66.34034866654267,0 33.64720451063261,66.34048992243018,0 33.64696009147612,66.34061709953086,0 33.6467789914739,66.34083313242232,0 33.64664332519244,66.34096370684775,0 33.64624519608343,66.34122803757916,0 33.64602693159655,66.34145737973394,0 33.64573809951418,66.34159585748517,0 33.6454728218084,66.34177059397119,0 33.64530569745822,66.34189642984006,0 33.64508197593081,66.34191852338625,0 33.64505094883966,66.34200785350937,0 33.64393866515808,66.34262831892694,0 33.6434544858851,66.342833079871,0 33.64307434742597,66.3429096938704,0 33.6430029561983,66.34298207226668,0 33.64271369701838,66.34304156263529,0 33.64258634380204,66.3431233369606,0 33.64228052539858,66.34317435158798,0 33.64158136938378,66.34338949652756,0 33.64082952673952,66.34354875094449,0 33.6401501675727,66.34367332834097,0 33.63939396902711,66.34379647261035,0 33.63891999929955,66.34387702692514,0 33.63843417634071,66.34403065429561,0 33.63811171474973,66.34409402876736,0 33.63790116912724,66.34422847769312,0 33.63766052748385,66.34435649859235,0 33.63750303673832,66.34451116367596,0 33.63733797300606,66.34463150368384,0 33.63719451836753,66.34472117307983,0 33.63699378249241,66.3448491036801,0 33.63679107751948,66.34506052274764,0 33.63654788454045,66.34522228201111,0 33.63624462432543,66.34532941689656,0 33.63589175234637,66.34548086406834,0 33.63556554280253,66.34559367896749,0 33.63525398513201,66.34570955392911,0 33.63486365945727,66.345848502767,0 33.63449184720297,66.34596489004528,0 33.63415956698163,66.34610251404028,0 33.63392728007948,66.34618556133259,0 33.63370135569298,66.34628757076725,0 33.63352803751717,66.34645106913308,0 33.63319392109673,66.34658370058874,0 33.63295763731741,66.34672655275401,0 33.63282063830404,66.34686359572542,0 33.63265713240597,66.34701543550369,0 33.6325631600449,66.34711285170589,0 33.63244700069265,66.34717071411899,0 33.63210126854707,66.34740750669155,0 33.63176237664368,66.34758939656508,0 33.63145076278206,66.34773637989863,0 33.63112017830393,66.34784834811245,0 33.63090477359164,66.34796044011071,0 33.6305415962964,66.34799335007808,0 33.63015504644419,66.34797628770166,0 33.62955391497466,66.3480353629693,0 33.6289320607546,66.34810363800814,0 33.62810900205782,66.34819619010891,0 33.62772803092364,66.34826777129359,0 33.62717543214438,66.34833840316749,0 33.62675422608056,66.34847982965091,0 33.62642125837191,66.34862530012192,0 33.6262441996917,66.34873963517866,0 33.62598137106259,66.34878330068334,0 33.62557454577378,66.34889975687233,0 33.62485244722482,66.34904636328433,0 33.62436422276794,66.34909914923432,0 33.62364436576527,66.34917691621325,0 33.62350878206357,66.34916358711986,0 33.62338785526195,66.34917182720281,0 33.6232950702947,66.34921700814212,0 33.62313633647987,66.34924012720629,0 33.62298836466083,66.34920529326688,0 33.62277877126655,66.34919143971247,0 33.62277583377561,66.34924627630325,0 33.62270639371003,66.34927923017278,0 33.62222882245339,66.34941185893548,0 33.62144651200682,66.34950599987027,0 33.62107255825158,66.34954284641529,0 33.6208191649459,66.34957135660893,0 33.62067386377515,66.34961261349444,0 33.62043820666852,66.34962615700474,0 33.62026276658448,66.34968511193415,0 33.61962229193994,66.34940264420811,0 33.61927559664041,66.34921762593274,0 33.61905838542004,66.34904814006812,0 33.61896064174377,66.34897095128348,0 33.61895943161659,66.34880817984497,0 33.61870736134372,66.34865836852396,0 33.61842828045929,66.34851060574999,0 33.61812958145092,66.34845679255889,0 33.61765026575269,66.34840360170786,0 33.61713839894533,66.34833203897314,0 33.61687871450848,66.34826843758799,0 33.61663829234364,66.34814950589329,0 33.61624930996462,66.34798367486981,0 33.61621416097725,66.347817805058,0 33.61614849825138,66.34772974226962,0 33.61636892787805,66.34758599002841,0 33.61651299810767,66.34753201067294,0 33.61683460127139,66.34755553353257,0 33.61709377645239,66.34756046509577,0 33.61766640615017,66.34748809153763,0 33.61823876973973,66.34737574290227,0 33.6186757901684,66.34732322628609,0 33.61926037951216,66.34727208055236,0 33.61978466486946,66.34721155349646,0 33.62050962249953,66.3471126563996,0 33.62108602758281,66.34710064634852,0 33.62167181420486,66.34700122071727,0 33.62226414271978,66.34684820934795,0 33.62270331661895,66.34667889979505,0 33.62318811614345,66.34652919270179,0 33.62360181513683,66.34641098734896,0 33.62400258210329,66.34634363375407,0 33.62420256036363,66.34628645323787,0 33.62387968207523,66.34603048630521,0 33.62360944607853,66.34583792305533,0 33.62361018169722,66.34564419621402,0 33.62353640135876,66.34556742307714,0 33.62350373959221,66.34513277060057,0 33.62355043508326,66.34494769694764,0 33.62352576396132,66.34480293882619,0 33.62373150744509,66.34467817747463,0 33.62404457050602,66.34457219762521,0 33.62440394490018,66.34448150239203,0 33.62523024350104,66.34426709435125,0 33.62568665783669,66.34415323474255,0 33.62597217082476,66.34406309784347,0 33.62621989346225,66.34389314747916,0 33.6263419044044,66.34376610479185,0 33.62663561984846,66.34376169936728,0 33.62725073136168,66.34382356604803,0 33.62767385300251,66.34382056828741,0 33.62801313481727,66.34379558078504,0 33.6282057658232,66.34384502315534,0 33.62868299345797,66.34383626694046,0 33.62879757627643,66.34387071130016,0 33.62886802233131,66.34381928266559,0 33.62912072219758,66.34387916867134,0 33.62935137442948,66.34387179890345,0 33.62961204299155,66.34394107555829,0 33.62984376835871,66.34391205551833,0 33.63007336766384,66.34381637795775,0 33.6302872153926,66.34377255072035,0 33.63053928873746,66.34373205648738,0 33.63087037002528,66.34376786675951,0 33.63115665842477,66.34387981451016,0 33.63148359353368,66.34396456390542,0 33.63162364889536,66.3439259004461,0 33.63181546142734,66.3439395113235,0 33.63215784864288,66.34407057037402,0 33.63247136096187,66.34418662025811,0 33.63273520435308,66.34416070421034,0 33.63265315108676,66.34404924249152,0 33.63224394622725,66.3437806119766,0 33.63220057452062,66.34369226308094,0 33.63236848569996,66.34354654711377,0 33.63262654135453,66.34346804638878,0 33.63319974640907,66.34340750301338,0 33.63365019365923,66.34336128386757,0 33.63419701692895,66.34324127899774,0 33.63430183153962,66.34313672161682,0 33.63434391216113,66.3430443127031,0 33.63409797634726,66.34299362601575,0 33.63417228513981,66.34286506623552,0 33.63468245647337,66.34287998437674,0 33.63487755110292,66.34281062035996,0 33.63540820030512,66.34263579725885,0 33.63692557184392,66.34200142435414,0 33.63763049567433,66.34177722329349,0 33.63800780503129,66.34160132683132,0 33.63871582331443,66.34125628016957,0 33.63900463956105,66.34111110355441,0 33.63937075273475,66.34079344786774,0 33.63981023316811,66.34055621174036,0 33.64039532308607,66.34018797905851,0 33.64086151073797,66.33998303352881,0 33.64137699531013,66.33979434064264,0 33.64201127975023,66.33966417501931,0 33.64291280144032,66.33941498616923,0 33.6434213458628,66.33926136656183,0 33.64390617894352,66.33910477259639,0 33.6441517733396,66.33895014784113,0 33.64455119120612,66.33877526509528,0 33.64500049618196,66.33860673376672,0 33.64542805510625,66.33849897668212,0 33.64579510146714,66.33835085777429,0 33.64613582526295,66.3382293838379,0 33.64636655088824,66.3381368650607,0 33.64664901900831,66.33812722685903,0 33.64683276479035,66.33817729344224,0 33.64709966693675,66.33817356160505,0 33.64737367875906,66.33820038556358,0 33.64760158257302,66.3382329483717,0 33.64795601929458,66.33826440380069,0 33.64839571237763,66.33829448266142,0 33.64875969791375,66.33832200776708,0 33.64896771870973,66.33842461781998,0 33.64935310268851,66.33858689499898,0 33.64981083279808,66.33873285702724,0 
					</coordinates>
				</LinearRing>
			</outerBoundaryIs>
		</Polygon>
	</Placemark>
</Document>
</kml>
